ONEWEB-0301             
1 49090U 21075R   26037.95137439 -.00000203  00000+0 -59991-3 0  9998
2 49090  87.8956  16.5034 0001648  74.5484 285.5827 13.12441489217483
ONEWEB-0302             
1 49091U 21075S   26038.01406346  .00000183  00000+0  47439-3 0  9992
2 49091  87.8955  16.4994 0001992  93.5837 266.5520 13.12442063217479
ONEWEB-0304             
1 49092U 21075T   26038.01374749 -.00000063  00000+0 -19568-3 0  9995
2 49092  87.9106  31.7265 0002010  87.3826 272.7536 13.17649885216438
ONEWEB-0305             
1 49093U 21075U   26038.00698748 -.00000056  00000+0 -17755-3 0  9991
2 49093  87.9114  31.7071 0002247  83.9674 276.1714 13.17651172216469
ONEWEB-0308             
1 49094U 21075V   26038.31223897  .00000453  00000+0  12236-2 0  9992
2 49094  87.8939  16.4297 0001582  76.5771 283.5534 13.12441967217525
ONEWEB-0309             
1 49095U 21075W   26038.01037056  .00000000  00000+0 -34230-4 0  9999
2 49095  87.9105  31.7210 0002053  99.4897 260.6467 13.17647513216434
ONEWEB-0310             
1 49096U 21075X   26037.94629656 -.00000013  00000+0 -72008-4 0  9994
2 49096  87.8945  16.5385 0001827  85.8555 274.2782 13.12441088218109
ONEWEB-0311             
1 49097U 21075Y   26038.01712871  .00000013  00000+0 -52058-6 0  9990
2 49097  87.9104  31.7144 0002160  82.2536 277.8841 13.17649232216481
ONEWEB-0312             
1 49098U 21075Z   26037.95636890  .00000056  00000+0  11149-3 0  9998
2 49098  87.9099  31.7475 0002197  90.0983 270.0400 13.17647419216453
ONEWEB-0313             
1 49099U 21075AA  26038.03723170 -.00000018  00000+0 -79820-4 0  9998
2 49099  87.9099  31.7379 0001945  85.2228 274.9125 13.17646611216455
ONEWEB-0314             
1 49100U 21075AB  26038.00362168 -.00000063  00000+0 -19481-3 0  9990
2 49100  87.9102  31.7035 0002264  88.6160 271.5231 13.17647804216422
ONEWEB-0315             
1 49101U 21075AC  26038.30038438  .00000311  00000+0  82859-3 0  9997
2 49101  87.8959  16.4217 0002044  75.3292 284.8063 13.12442984218136
ONEWEB-0316             
1 49102U 21075AD  26038.25831773  .00000019  00000+0  15467-4 0  9992
2 49102  87.9210   1.2589 0001890  80.7920 279.3426 13.18686140220087
ONEWEB-0317             
1 49103U 21075AE  26038.30376679  .00000389  00000+0  10449-2 0  9991
2 49103  87.8961  16.4432 0001721 111.1534 248.9779 13.12441991218153
ONEWEB-0318             
1 49104U 21075AF  26038.25501452 -.00000028  00000+0 -10276-3 0  9996
2 49104  87.9221   1.2493 0002051  77.6809 282.4552 13.18686279220040
ONEWEB-0319             
1 49105U 21075AG  26038.01881904 -.00000091  00000+0 -26810-3 0  9995
2 49105  87.9102  31.7295 0002138  73.4615 286.6752 13.17650032216468
ONEWEB-0323             
1 49106U 21075AH  26037.98017843 -.00000038  00000+0 -14218-3 0  9994
2 49106  87.8955  16.4898 0002487  78.0821 282.0586 13.12443462217479
