[{"OBJECT_NAME":"ONEWEB-0301","OBJECT_ID":"2021-075R","EPOCH":"2026-02-06T22:49:58.747296","MEAN_MOTION":13.12441489,"ECCENTRICITY":0.0001648,"INCLINATION":87.8956,"RA_OF_ASC_NODE":16.5034,"ARG_OF_PERICENTER":74.5484,"MEAN_ANOMALY":285.5827,"EPHEMERIS_TYPE":0,"CLASSIFICATION_TYPE":"U","NORAD_CAT_ID":49090,"ELEMENT_SET_NO":999,"REV_AT_EPOCH":21748,"BSTAR":-0.00059991,"MEAN_MOTION_DOT":-2.03e-6,"MEAN_MOTION_DDOT":0},{"OBJECT_NAME":"ONEWEB-0302","OBJECT_ID":"2021-075S","EPOCH":"2026-02-07T00:20:15.082944","MEAN_MOTION":13.12442063,"ECCENTRICITY":0.00019927,"INCLINATION":87.8955,"RA_OF_ASC_NODE":16.4994,"ARG_OF_PERICENTER":93.5837,"MEAN_ANOMALY":266.552,"EPHEMERIS_TYPE":0,"CLASSIFICATION_TYPE":"U","NORAD_CAT_ID":49091,"ELEMENT_SET_NO":999,"REV_AT_EPOCH":21747,"BSTAR":0.00047438653,"MEAN_MOTION_DOT":1.83e-6,"MEAN_MOTION_DDOT":0},{"OBJECT_NAME":"ONEWEB-0304","OBJECT_ID":"2021-075T","EPOCH":"2026-02-07T00:19:47.783136","MEAN_MOTION":13.17649885,"ECCENTRICITY":0.00020104,"INCLINATION":87.9106,"RA_OF_ASC_NODE":31.7265,"ARG_OF_PERICENTER":87.3826,"MEAN_ANOMALY":272.7536,"EPHEMERIS_TYPE":0,"CLASSIFICATION_TYPE":"U","NORAD_CAT_ID":49092,"ELEMENT_SET_NO":999,"REV_AT_EPOCH":21643,"BSTAR":-0.00019568042,"MEAN_MOTION_DOT":-6.3e-7,"MEAN_MOTION_DDOT":0},{"OBJECT_NAME":"ONEWEB-0305","OBJECT_ID":"2021-075U","EPOCH":"2026-02-07T00:10:03.718272","MEAN_MOTION":13.17651172,"ECCENTRICITY":0.00022472,"INCLINATION":87.9114,"RA_OF_ASC_NODE":31.7071,"ARG_OF_PERICENTER":83.9674,"MEAN_ANOMALY":276.1714,"EPHEMERIS_TYPE":0,"CLASSIFICATION_TYPE":"U","NORAD_CAT_ID":49093,"ELEMENT_SET_NO":999,"REV_AT_EPOCH":21646,"BSTAR":-0.0001775526,"MEAN_MOTION_DOT":-5.6e-7,"MEAN_MOTION_DDOT":0},{"OBJECT_NAME":"ONEWEB-0308","OBJECT_ID":"2021-075V","EPOCH":"2026-02-07T07:29:37.447008","MEAN_MOTION":13.12441967,"ECCENTRICITY":0.00015828,"INCLINATION":87.8939,"RA_OF_ASC_NODE":16.4297,"ARG_OF_PERICENTER":76.5771,"MEAN_ANOMALY":283.5534,"EPHEMERIS_TYPE":0,"CLASSIFICATION_TYPE":"U","NORAD_CAT_ID":49094,"ELEMENT_SET_NO":999,"REV_AT_EPOCH":21752,"BSTAR":0.0012236463,"MEAN_MOTION_DOT":4.53e-6,"MEAN_MOTION_DDOT":0},{"OBJECT_NAME":"ONEWEB-0309","OBJECT_ID":"2021-075W","EPOCH":"2026-02-07T00:14:56.016384","MEAN_MOTION":13.17647513,"ECCENTRICITY":0.00020537,"INCLINATION":87.9105,"RA_OF_ASC_NODE":31.721,"ARG_OF_PERICENTER":99.4897,"MEAN_ANOMALY":260.6467,"EPHEMERIS_TYPE":0,"CLASSIFICATION_TYPE":"U","NORAD_CAT_ID":49095,"ELEMENT_SET_NO":999,"REV_AT_EPOCH":21643,"BSTAR":-3.4229752e-5,"MEAN_MOTION_DOT":0,"MEAN_MOTION_DDOT":0},{"OBJECT_NAME":"ONEWEB-0310","OBJECT_ID":"2021-075X","EPOCH":"2026-02-06T22:42:40.022784","MEAN_MOTION":13.12441088,"ECCENTRICITY":0.0001827,"INCLINATION":87.8945,"RA_OF_ASC_NODE":16.5385,"ARG_OF_PERICENTER":85.8555,"MEAN_ANOMALY":274.2782,"EPHEMERIS_TYPE":0,"CLASSIFICATION_TYPE":"U","NORAD_CAT_ID":49096,"ELEMENT_SET_NO":999,"REV_AT_EPOCH":21810,"BSTAR":-7.2008e-5,"MEAN_MOTION_DOT":-1.3e-7,"MEAN_MOTION_DDOT":0},{"OBJECT_NAME":"ONEWEB-0311","OBJECT_ID":"2021-075Y","EPOCH":"2026-02-07T00:24:39.920544","MEAN_MOTION":13.17649232,"ECCENTRICITY":0.00021604,"INCLINATION":87.9104,"RA_OF_ASC_NODE":31.7144,"ARG_OF_PERICENTER":82.2536,"MEAN_ANOMALY":277.8841,"EPHEMERIS_TYPE":0,"CLASSIFICATION_TYPE":"U","NORAD_CAT_ID":49097,"ELEMENT_SET_NO":999,"REV_AT_EPOCH":21648,"BSTAR":-5.20576e-7,"MEAN_MOTION_DOT":1.3e-7,"MEAN_MOTION_DDOT":0},{"OBJECT_NAME":"ONEWEB-0312","OBJECT_ID":"2021-075Z","EPOCH":"2026-02-06T22:57:10.272960","MEAN_MOTION":13.17647419,"ECCENTRICITY":0.0002197,"INCLINATION":87.9099,"RA_OF_ASC_NODE":31.7475,"ARG_OF_PERICENTER":90.0983,"MEAN_ANOMALY":270.04,"EPHEMERIS_TYPE":0,"CLASSIFICATION_TYPE":"U","NORAD_CAT_ID":49098,"ELEMENT_SET_NO":999,"REV_AT_EPOCH":21645,"BSTAR":0.00011149,"MEAN_MOTION_DOT":5.6e-7,"MEAN_MOTION_DDOT":0},{"OBJECT_NAME":"ONEWEB-0313","OBJECT_ID":"2021-075AA","EPOCH":"2026-02-07T00:53:36.818880","MEAN_MOTION":13.17646611,"ECCENTRICITY":0.00019452,"INCLINATION":87.9099,"RA_OF_ASC_NODE":31.7379,"ARG_OF_PERICENTER":85.2228,"MEAN_ANOMALY":274.9125,"EPHEMERIS_TYPE":0,"CLASSIFICATION_TYPE":"U","NORAD_CAT_ID":49099,"ELEMENT_SET_NO":999,"REV_AT_EPOCH":21645,"BSTAR":-7.9819557e-5,"MEAN_MOTION_DOT":-1.8e-7,"MEAN_MOTION_DDOT":0},{"OBJECT_NAME":"ONEWEB-0314","OBJECT_ID":"2021-075AB","EPOCH":"2026-02-07T00:05:12.913152","MEAN_MOTION":13.17647804,"ECCENTRICITY":0.00022647,"INCLINATION":87.9102,"RA_OF_ASC_NODE":31.7035,"ARG_OF_PERICENTER":88.616,"MEAN_ANOMALY":271.5231,"EPHEMERIS_TYPE":0,"CLASSIFICATION_TYPE":"U","NORAD_CAT_ID":49100,"ELEMENT_SET_NO":999,"REV_AT_EPOCH":21642,"BSTAR":-0.00019480971,"MEAN_MOTION_DOT":-6.3e-7,"MEAN_MOTION_DDOT":0},{"OBJECT_NAME":"ONEWEB-0315","OBJECT_ID":"2021-075AC","EPOCH":"2026-02-07T07:12:33.210432","MEAN_MOTION":13.12442984,"ECCENTRICITY":0.00020444,"INCLINATION":87.8959,"RA_OF_ASC_NODE":16.4217,"ARG_OF_PERICENTER":75.3292,"MEAN_ANOMALY":284.8063,"EPHEMERIS_TYPE":0,"CLASSIFICATION_TYPE":"U","NORAD_CAT_ID":49101,"ELEMENT_SET_NO":999,"REV_AT_EPOCH":21813,"BSTAR":0.00082859285,"MEAN_MOTION_DOT":3.11e-6,"MEAN_MOTION_DDOT":0},{"OBJECT_NAME":"ONEWEB-0316","OBJECT_ID":"2021-075AD","EPOCH":"2026-02-07T06:11:58.651872","MEAN_MOTION":13.1868614,"ECCENTRICITY":0.00018901,"INCLINATION":87.921,"RA_OF_ASC_NODE":1.2589,"ARG_OF_PERICENTER":80.792,"MEAN_ANOMALY":279.3426,"EPHEMERIS_TYPE":0,"CLASSIFICATION_TYPE":"U","NORAD_CAT_ID":49102,"ELEMENT_SET_NO":999,"REV_AT_EPOCH":22008,"BSTAR":1.5467449e-5,"MEAN_MOTION_DOT":1.9e-7,"MEAN_MOTION_DDOT":0},{"OBJECT_NAME":"ONEWEB-0317","OBJECT_ID":"2021-075AE","EPOCH":"2026-02-07T07:17:25.450656","MEAN_MOTION":13.12441991,"ECCENTRICITY":0.00017214,"INCLINATION":87.8961,"RA_OF_ASC_NODE":16.4432,"ARG_OF_PERICENTER":111.1534,"MEAN_ANOMALY":248.9779,"EPHEMERIS_TYPE":0,"CLASSIFICATION_TYPE":"U","NORAD_CAT_ID":49103,"ELEMENT_SET_NO":999,"REV_AT_EPOCH":21815,"BSTAR":0.0010448988,"MEAN_MOTION_DOT":3.89e-6,"MEAN_MOTION_DDOT":0},{"OBJECT_NAME":"ONEWEB-0318","OBJECT_ID":"2021-075AF","EPOCH":"2026-02-07T06:07:13.254528","MEAN_MOTION":13.18686279,"ECCENTRICITY":0.00020512,"INCLINATION":87.9221,"RA_OF_ASC_NODE":1.2493,"ARG_OF_PERICENTER":77.6809,"MEAN_ANOMALY":282.4552,"EPHEMERIS_TYPE":0,"CLASSIFICATION_TYPE":"U","NORAD_CAT_ID":49104,"ELEMENT_SET_NO":999,"REV_AT_EPOCH":22004,"BSTAR":-0.00010275807,"MEAN_MOTION_DOT":-2.8e-7,"MEAN_MOTION_DDOT":0},{"OBJECT_NAME":"ONEWEB-0319","OBJECT_ID":"2021-075AG","EPOCH":"2026-02-07T00:27:05.965056","MEAN_MOTION":13.17650032,"ECCENTRICITY":0.00021387,"INCLINATION":87.9102,"RA_OF_ASC_NODE":31.7295,"ARG_OF_PERICENTER":73.4615,"MEAN_ANOMALY":286.6752,"EPHEMERIS_TYPE":0,"CLASSIFICATION_TYPE":"U","NORAD_CAT_ID":49105,"ELEMENT_SET_NO":999,"REV_AT_EPOCH":21646,"BSTAR":-0.00026810339,"MEAN_MOTION_DOT":-9.1e-7,"MEAN_MOTION_DDOT":0},{"OBJECT_NAME":"ONEWEB-0323","OBJECT_ID":"2021-075AH","EPOCH":"2026-02-06T23:31:27.416352","MEAN_MOTION":13.12443462,"ECCENTRICITY":0.0002487,"INCLINATION":87.8955,"RA_OF_ASC_NODE":16.4898,"ARG_OF_PERICENTER":78.0821,"MEAN_ANOMALY":282.0586,"EPHEMERIS_TYPE":0,"CLASSIFICATION_TYPE":"U","NORAD_CAT_ID":49106,"ELEMENT_SET_NO":999,"REV_AT_EPOCH":21747,"BSTAR":-0.00014218,"MEAN_MOTION_DOT":-3.8e-7,"MEAN_MOTION_DDOT":0}]
